IXPE                    
1 49954U 21121A   24175.00001157  .00003633  00000+0  23045-3 0  9992
2 49954   0.2324 350.2319 0009168   5.8791 151.5505 14.98279134  5668
